,Site Name,Lat,Long,LongDirection,LatDirection
0,AAOT ,45.314,12.508,E,N
1,Abu_Al_Bukhoosh ,25.495,53.146,E,N
2,AgiaMarina_Xyliatou ,35.038,33.058,E,N
3,Aguascalientes ,21.7,-102.32,W,N
4,Ahmedabad ,23.017,72.517,E,N
5,Albany_Oregon ,44.583,-123.067,W,N
6,Albuquerque ,35.052,-106.536,W,N
7,Alishan ,23.508,120.813,E,N
8,Al_Qlaa ,24.133,53.033,E,N
9,American_Samoa ,-14.247,-170.564,W,S
10,Amity_Univ_Gurgaon ,28.317,76.916,E,N
11,Andros_Island ,24.7,-77.8,W,N
12,AntarcticaDomeC ,-75.1,123.331,E,S
13,Appalachian_State ,36.215,-81.694,W,N
14,Aras_de_los_Olmos ,39.945,-1.102,W,N
15,Arica ,-18.472,-70.313,W,S
16,ARM_Ascension_Is ,-7.967,-14.35,W,S
17,ARM_Darwin ,-12.425,130.891,E,S
18,ARM_Highlands_MA ,42.03,-70.049,W,N
19,ARM_Macquarie_Is ,-54.5,158.935,E,S
20,ARM_Nainital ,29.359,79.458,E,N
21,ARM_WAIS ,-79.471,-112.083,W,S
22,ASI_Malindi ,-2.996,40.194,E,S
23,ATHENS-NOA ,37.972,23.718,E,N
24,Avignon ,43.933,4.878,E,N
25,Bach_Long_Vy ,20.133,107.733,E,N
26,Badajoz ,38.883,-7.011,W,N
27,Bakersfield ,35.332,-119.0,W,N
28,Bamboo ,25.187,121.535,E,N
29,Bangkok ,13.749,100.518,E,N
30,Barajas ,40.465,-3.581,W,N
31,Barcelona ,41.389,2.112,E,N
32,Bari_Waterfront ,41.117,16.893,E,N
33,Baskin ,32.282,-91.739,W,N
34,Beijing-CAMS ,39.933,116.317,E,N
35,Belsk ,51.837,20.792,E,N
36,Ben_Salem ,35.551,9.914,E,N
37,Bethlehem ,-28.248,28.333,E,S
38,Bidi_Bahn ,14.06,-2.45,W,N
39,Big_Meadows ,38.522,-78.436,W,N
40,Birkenes ,58.388,8.252,E,N
41,Blyth_NOAH ,55.146,-1.421,W,N
42,Bodele ,16.883,18.55,E,N
43,Bonanza_Creek ,64.743,-148.316,W,N
44,BORDEAUX ,44.788,-0.579,W,N
45,Bose_Institute ,27.031,88.261,E,N
46,Bozeman ,45.662,-111.045,W,N
47,Brasilia ,-15.917,-47.9,W,S
48,Brest_MF ,48.445,-4.412,W,N
49,Brookhaven ,40.866,-72.885,W,N
50,Bucarest ,44.45,26.525,E,N
51,Buesum ,54.132,8.879,E,N
52,Bure_OPE ,48.562,5.505,E,N
53,Bushland ,35.187,-102.094,W,N
54,Cabo_Raso ,38.709,-9.486,W,N
55,Cagliari ,39.281,9.052,E,N
56,Cairo_EMA_2 ,30.081,31.29,E,N
57,Calern_OCA ,43.752,6.923,E,N
58,Camaguey ,21.422,-77.85,W,N
59,Campo_Grande_SONDA ,-20.439,-54.539,W,S
60,Canberra ,-35.271,149.111,E,S
61,Cape_Fuguei_Station ,25.297,121.538,E,N
62,Capo_Verde ,16.733,-22.935,W,N
63,Carlsbad ,32.369,-104.233,W,N
64,CART_SITE ,36.607,-97.486,W,N
65,Cascade_Airport ,44.495,-116.017,W,N
66,CATUC_Bamenda ,5.949,10.156,E,N
67,CEILAP-BA ,-34.555,-58.506,W,S
68,CEILAP-Neuquen ,-38.952,-68.137,W,S
69,CENER ,42.816,-1.602,W,N
70,Chao_Jou ,22.513,120.529,E,N
71,Chebogue_Point ,43.747,-66.123,W,N
72,Cheritan ,37.289,-75.972,W,N
73,Chiayi ,23.496,120.496,E,N
74,China_Lake ,35.674,-117.745,W,N
75,Churchill ,58.736,-93.818,W,N
76,Clermont_Ferrand ,45.772,2.964,E,N
77,Cliff_Creek_3 ,45.115,-114.837,W,N
78,Cliff_Creek_6 ,45.144,-114.845,W,N
79,Cold_Lake ,54.417,-110.283,W,N
80,Concepcion ,-16.138,-62.028,W,S
81,Cork_UCC ,51.892,-8.494,W,N
82,COVE_SEAPRISM ,36.9,-75.71,W,N
83,CRPSM_Malindi ,-2.996,40.194,E,S
84,Cuatro_Vientos ,40.37,-3.78,W,N
85,CUT-TEPAK ,34.675,33.043,E,N
86,Dakar_Belair ,14.702,-17.426,W,N
87,Darwin ,-12.424,130.892,E,S
88,Dead_Horse ,69.428,-148.698,W,N
89,Dhabi ,24.481,54.383,E,N
90,Dharwar ,15.429,74.989,E,N
91,Dilar ,37.063,-3.386,W,N
92,Doi_Ang_Khang ,19.932,99.045,E,N
93,Donetsk ,48.021,37.809,E,N
94,DRAGON_Henties_1 ,-22.052,14.295,E,S
95,DRAGON_Henties_4 ,-22.02,14.346,E,S
96,Dry_Tortugas ,24.628,-82.872,W,N
97,Dunhuang_LZU ,40.492,94.955,E,N
98,Dushanbe ,38.553,68.858,E,N
99,Easton-MDE ,38.795,-76.084,W,N
100,Eforie ,44.075,28.632,E,N
101,Eilat ,29.503,34.917,E,N
102,Elandsfontein ,-26.245,29.418,E,S
103,Ellington_Field ,29.6,-95.18,W,N
104,El_Segundo ,33.913,-118.382,W,N
105,EPA-NCU ,24.968,121.185,E,N
106,Ersa ,43.004,9.359,E,N
107,Etosha_Pan ,-19.175,15.914,E,S
108,Exeter_MO ,50.729,-3.475,W,N
109,Finokalia-FKL ,35.338,25.67,E,N
110,Fontainebleau ,48.407,2.68,E,N
111,Fort_McMurray ,56.752,-111.476,W,N
112,Frenchman_Flat ,36.809,-115.935,W,N
113,Fresno_X ,36.782,-119.773,W,N
114,Fukue ,32.752,128.682,E,N
115,Gageocho_Station ,33.942,124.593,E,N
116,Galata_Platform ,43.045,28.193,E,N
117,Georgia_Tech ,33.78,-84.4,W,N
118,Glendale_Park ,39.384,-76.579,W,N
119,Gobabeb ,-23.562,15.041,E,S
120,Gorongosa ,-18.978,34.351,E,S
121,GOT_Seaprism ,9.286,101.412,E,N
122,Granada ,37.164,-3.605,W,N
123,Greenbelt_Park ,38.746,-76.894,W,N
124,Guadeloup ,16.225,-61.528,W,N
125,Gustav_Dalen_Tower ,58.594,17.467,E,N
126,Hagerstown ,39.708,-77.725,W,N
127,Hamilton_El_MS ,39.359,-76.558,W,N
128,Hampton_University ,37.02,-76.337,W,N
129,Hankuk_UFS ,37.339,127.266,E,N
130,Hawaii ,20.71,-156.253,W,N
131,Helgoland ,54.178,7.887,E,N
132,Heng-Chun ,22.055,120.7,E,N
133,HESS ,-23.273,16.503,E,S
134,Hog_Island ,37.453,-75.675,W,N
135,Homburi ,15.329,-1.547,W,N
136,Hong_Kong_Sheung ,22.483,114.117,E,N
137,Howland ,45.204,-68.74,W,N
138,Huancayo-IGP ,-12.04,-75.321,W,S
139,Hyytiala ,61.846,24.296,E,N
140,Iasi_LOASL ,47.193,27.556,E,N
141,Ieodo_Station ,32.123,125.182,E,N
142,IIT_KGP_EXT_Kolkata ,22.574,88.418,E,N
143,IMC_Oristano ,39.91,8.5,E,N
144,Inhaca ,-26.041,32.905,E,S
145,Irbe_Lighthouse ,57.751,21.723,E,N
146,Ispra ,45.803,8.627,E,N
147,Ittoqqortoormiit ,70.485,-21.951,W,N
148,Jabiru ,-12.661,132.893,E,S
149,Jambi ,-1.632,103.642,E,S
150,Jaru ,-10.386,-62.548,W,S
151,Jingtai ,37.333,104.1,E,N
152,Ji_Parana_UNIR ,-10.882,-61.969,W,S
153,JonesERC ,31.231,-84.471,W,N
154,Kaashidhoo ,4.965,73.466,E,N
155,Kandahar ,31.509,65.848,E,N
156,Kanzelhohe_Obs ,46.677,13.901,E,N
157,Kapoho ,19.516,-154.811,W,N
158,Karunya_University ,10.935,76.744,E,N
159,Kathmandu-Bode ,27.68,85.39,E,N
160,KAUST_Campus ,22.305,39.103,E,N
161,Kelowna ,49.955,-119.373,W,N
162,KEMPTEN_UAS ,47.716,10.314,E,N
163,Kibale ,0.56,30.358,E,N
164,KITcube_Karlsruhe ,49.093,8.428,E,N
165,Kitt-Peak_MP ,31.958,-111.595,W,N
166,Koforidua_ANUC ,6.109,-0.302,W,N
167,Konza ,39.083,-96.56,W,N
168,KORUS_Baeksa ,37.412,127.569,E,N
169,KORUS_Kyungpook_NU ,35.89,128.606,E,N
170,KORUS_Olympic_Park ,37.522,127.124,E,N
171,KORUS_UNIST_Ulsan ,35.582,129.19,E,N
172,Kuching ,1.491,110.349,E,N
173,Kuujjuarapik ,55.28,-77.76,W,N
174,Kuwait_University ,29.325,47.971,E,N
175,Kyiv ,50.364,30.497,E,N
176,La_Crau ,43.577,4.819,E,N
177,La_Jolla ,32.868,-117.251,W,N
178,Lakeland_El_MS ,39.254,-76.645,W,N
179,La_Laguna ,28.482,-16.321,W,N
180,LAMTO-STATION ,6.224,-5.027,W,N
181,Langtang ,28.012,85.493,E,N
182,Lansdowne_HS ,39.245,-76.648,W,N
183,La_Parguera ,17.97,-67.045,W,N
184,Las_Cardes ,-30.251,-71.258,W,S
185,Latoya ,-15.678,23.3,E,S
186,Le_Fauga ,43.384,1.285,E,N
187,Leland_HS ,33.402,-90.893,W,N
188,Liangning ,41.512,122.701,E,N
189,LISCO ,40.955,-73.342,W,N
190,Lochiel ,49.028,-122.602,W,N
191,London-UCL-UAO ,51.524,-0.131,W,N
192,Los_Alamos ,35.874,-106.326,W,N
193,Loskop_Dam ,-25.408,29.352,E,S
194,Luang_Namtha ,20.931,101.416,E,N
195,Lugansk ,48.57,39.365,E,N
196,Lumbini_North ,27.504,83.282,E,N
197,MAARCO ,24.7,54.659,E,N
198,Madrid ,40.452,-3.724,W,N
199,Magurele_Inoe ,44.348,26.031,E,N
200,Makassar ,-4.998,119.572,E,S
201,MALE ,4.192,73.529,E,N
202,Manaus_EMBRAPA ,-2.891,-59.97,W,S
203,Manus ,-2.06,147.425,E,S
204,Maricopa ,33.069,-111.972,W,N
205,Martova ,49.936,36.953,E,N
206,Maun_Tower ,-19.9,23.55,E,S
207,McCall_AB_Standard ,44.87,-116.116,W,N
208,McCall_Dragon_4 ,45.277,-115.915,W,N
209,McCall_Dragon_7 ,45.41,-116.329,W,N
210,McClellan_AFB ,38.668,-121.399,W,N
211,MD_Science_Center ,39.281,-76.612,W,N
212,Melpitz ,51.526,12.928,E,N
213,Merredin ,-31.493,118.226,E,S
214,MetObs_Lindenberg ,52.209,14.121,E,N
215,Mfuwe ,-13.257,31.931,E,S
216,Migal ,33.236,35.578,E,N
217,Minqin ,38.607,102.959,E,N
218,MISR-JPL ,34.199,-118.174,W,N
219,Missoula_Midslope ,47.0,-114.026,W,N
220,Mobile_N_011509_ND ,28.421,76.919,E,N
221,Modesto ,37.642,-120.994,W,N
222,Mongu ,-15.254,23.151,E,S
223,Montesoro_Bastia ,42.672,9.435,E,N
224,Montsec ,42.051,0.73,E,N
225,Mount_Chacaltaya ,-16.35,-68.132,W,S
226,MPI_Mainz ,49.992,8.238,E,N
227,Mt_WLG ,36.283,100.896,E,N
228,Munich_University ,48.148,11.573,E,N
229,Mussafa ,24.372,54.467,E,N
230,Mwinilunga ,-11.74,24.431,E,S
231,Nainital ,29.359,79.458,E,N
232,Namibe ,-15.159,12.178,E,S
233,Narsarsuaq ,61.156,-45.419,W,N
234,NASA_LaRC ,37.105,-76.379,W,N
235,NCAR ,40.038,-105.243,W,N
236,Ndola ,-12.995,28.658,E,S
237,NEON_BONA ,65.154,-147.503,W,N
238,NEON_CLBJ ,33.401,-97.57,W,N
239,NEON_DEJU ,63.881,-145.751,W,N
240,NEON_GRSM ,35.689,-83.502,W,N
241,NEON_HarvardForest ,42.533,-72.19,W,N
242,NEON-HQ ,40.017,-105.246,W,N
243,NEON_LENO ,31.854,-88.161,W,N
244,NEON_NIWO ,40.054,-105.582,W,N
245,NEON_ONAQ ,40.178,-112.452,W,N
246,NEON_PUUM ,19.553,-155.317,W,N
247,NEON_SCBI ,38.893,-78.139,W,N
248,NEON_SJER ,37.109,-119.732,W,N
249,NEON_Sterling ,40.462,-103.029,W,N
250,NEON_TOOL ,68.661,-149.37,W,N
251,NEON_WOOD ,47.128,-99.241,W,N
252,Nes_Ziona ,31.922,34.789,E,N
253,New_Hampshire_Univ ,43.133,-70.92,W,N
254,NhaTrang ,12.205,109.206,E,N
255,Niassa ,-12.155,37.567,E,S
256,Niigata ,37.846,138.942,E,N
257,Norfolk_State_Univ ,36.848,-76.259,W,N
258,Noto ,37.334,137.137,E,N
259,NSA_YJP_BOREAS ,55.903,-98.29,W,N
260,NW_Chapel_Hill ,35.971,-79.093,W,N
261,OBERNAI ,48.443,7.543,E,N
262,OHP_OBSERVATOIRE ,43.935,5.71,E,N
263,Okinawa_Hedo ,26.867,128.249,E,N
264,Oostende ,51.225,2.925,E,N
265,Orizaba ,19.106,-97.324,W,N
266,ORS_UNAM_ISNP ,19.399,-99.204,W,N
267,Ouagadougou ,12.424,-1.487,W,N
268,Oukaimeden ,31.209,-7.864,W,N
269,Oyster ,37.295,-75.933,W,N
270,Pafos ,34.711,32.483,E,N
271,Palangkaraya ,-2.228,113.946,E,S
272,Palma_de_Mallorca ,39.553,2.625,E,N
273,Pantnagar ,29.046,79.521,E,N
274,Paranal_CTA ,-24.701,-70.325,W,S
275,Patapsco_MS ,39.303,-76.847,W,N
276,Penn_State_Univ ,40.742,-78.081,W,N
277,Petrolina_SONDA ,-9.069,-40.32,W,S
278,Pickle_Lake ,51.449,-90.218,W,N
279,Pimai ,15.182,102.564,E,N
280,Pitres ,36.936,-3.326,W,N
281,Pokhara ,28.187,83.975,E,N
282,Poprad-Ganovce ,49.035,20.322,E,N
283,Porto_Nacional ,-10.7,-48.41,W,S
284,Possession_Island ,-27.01,15.194,E,S
285,Praia ,14.947,-23.484,W,N
286,Progress ,-69.378,76.389,E,S
287,Puerto_Madryn ,-42.79,-65.01,W,S
288,Pune ,18.537,73.805,E,N
289,Puspiptek ,-6.356,106.664,E,S
290,QOMS_CAS ,28.365,86.948,E,N
291,Raciborz ,50.083,18.192,E,N
292,Railroad_Valley ,38.497,-115.691,W,N
293,Ras_El_Ain ,31.67,-7.599,W,N
294,Red_Mountain_Pass ,37.907,-107.711,W,N
295,Resolute_Bay ,74.705,-94.969,W,N
296,Reykjavik ,64.128,-21.904,W,N
297,Rimrock ,46.487,-116.992,W,N
298,Rio_Piedras ,18.402,-66.051,W,N
299,Rochester ,43.234,-77.586,W,N
300,Rome_ESA_ESRIN ,41.827,12.672,E,N
301,Roosevelt_Roads ,18.212,-65.599,W,N
302,Saada ,31.626,-8.156,W,N
303,SACOL ,35.946,104.137,E,N
304,Saint_Mandrier ,43.067,5.944,E,N
305,San_Cristobal_USFQ ,-0.895,-89.609,W,S
306,San_Giuliano ,42.286,9.519,E,N
307,San_Pietro_Capo ,44.65,11.62,E,N
308,SANTA_CRUZ_UTEPSA ,-17.767,-63.201,W,S
309,Santa_Rosa ,10.841,-85.616,W,N
310,Santiago_Beauchef_2 ,-33.457,-70.662,W,S
311,Sao_Paulo ,-23.561,-46.735,W,S
312,SDSU_IPLab ,44.315,-96.786,W,N
313,SDU3 ,-20.102,-67.511,W,S
314,SDU6 ,-20.154,-67.573,W,S
315,SEARCH-Centreville ,32.903,-87.25,W,N
316,Section-7_Platform ,44.546,29.447,E,N
317,Senanga ,-16.109,23.293,E,S
318,Sesheke ,-17.481,24.304,E,S
319,Seysses ,43.503,1.26,E,N
320,Shanghi_Minhang ,31.13,121.397,E,N
321,Shijiazhuang-SZF ,38.017,114.458,E,N
322,Shouxian ,32.558,116.782,E,N
323,Simonstown_IMT ,-34.193,18.446,E,S
324,Sioux_Falls ,43.736,-96.626,W,N
325,Sirmione_Museo_GC ,45.5,10.606,E,N
326,SMART ,24.249,55.612,E,N
327,SMHI ,58.58,16.15,E,N
328,Sodankyla ,67.367,26.63,E,N
329,SONET_Harbin ,45.705,126.614,E,N
330,SONET_Shanghai ,31.284,121.481,E,N
331,Songkhla_Met_Sta ,7.184,100.605,E,N
332,Sorong ,-0.875,131.268,E,S
333,South_Pole_Obs_NOAA ,-90.0,70.3,E,S
334,Spokane ,47.62,-117.534,W,N
335,SSA_YJP_BOREAS ,53.675,-104.65,W,N
336,Steamboat_Springs ,40.464,-106.817,W,N
337,St_Helena ,-15.942,-5.667,W,S
338,Stornoway_MO ,58.212,-6.182,W,N
339,Sua_Pan ,-20.533,26.067,E,S
340,Sugarcone ,39.385,-76.686,W,N
341,Tabernas_PSA-DLR ,37.091,-2.358,W,N
342,Tahir ,5.411,100.197,E,N
343,Taichung ,24.106,120.491,E,N
344,Tai_Ping ,10.376,114.362,E,N
345,Talmudical_Academy ,39.369,-76.746,W,N
346,Tamihua ,21.261,-97.442,W,N
347,Tarbes_Etal ,43.224,0.049,E,N
348,Teide ,28.27,-16.639,W,N
349,Tenerife ,28.033,-16.633,W,N
350,The_Hague ,52.11,4.327,E,N
351,Thimphu ,27.473,89.639,E,N
352,Thornton_C-power ,51.532,2.955,E,N
353,Timisoara ,45.746,21.227,E,N
354,Tizi_Ouzou ,36.699,4.056,E,N
355,T2_MAX_MEX ,20.01,-98.909,W,N
356,Tomsk_22 ,56.417,84.074,E,N
357,Toravere ,58.265,26.467,E,N
358,Toulouse ,43.575,1.374,E,N
359,Toyama ,36.699,137.187,E,N
360,Tres_Olivos ,40.499,-3.689,W,N
361,Tromelin ,-15.889,54.517,E,S
362,Tucson ,32.233,-110.953,W,N
363,Tukurui ,-3.717,-49.683,W,S
364,Tuxtla_Gutierrez ,16.755,-93.152,W,N
365,Tuz_Golu_3 ,38.792,33.465,E,N
366,UAHuntsville ,34.725,-86.645,W,N
367,UCLA ,34.07,-118.443,W,N
368,UEM_Maputo ,-25.95,32.599,E,S
369,Ulaangom ,49.973,92.078,E,N
370,Umm_Al_Quwain ,25.533,55.658,E,N
371,UNC-Palmira ,3.512,-76.308,W,N
372,Univ_of_Nevada-Reno ,39.541,-119.814,W,N
373,Upington ,-28.379,21.156,E,S
374,USC_SEAPRISM ,33.564,-118.118,W,N
375,USDA-BARC ,39.031,-76.932,W,N
376,USM_Penang ,5.358,100.302,E,N
377,Valladolid ,41.664,-4.706,W,N
378,Venise ,45.314,12.508,E,N
379,Vienna_BOKU ,48.238,16.332,E,N
380,Villefranche ,43.684,7.329,E,N
381,Vishkhapatnam ,17.724,83.327,E,N
382,Wallops_ACHIEVE ,37.933,-75.471,W,N
383,Waskesiu ,53.914,-106.07,W,N
384,WaveCIS_Site_CSI_6 ,28.867,-90.483,W,N
385,Weybourne ,52.95,1.122,E,N
386,White_Sands_HELSTF ,32.635,-106.338,W,N
387,Windsor_B ,42.283,-83.083,W,N
388,Wisconsin ,46.052,-89.654,W,N
389,Wytham_Woods ,51.77,-1.333,W,N
390,Xinglong ,40.396,117.578,E,N
391,Yakutsk ,61.662,129.367,E,N
392,Yaqui ,27.281,-109.912,W,N
393,Yen_Bai ,21.705,104.869,E,N
394,Yonsei_University ,37.564,126.935,E,N
395,Yuma ,32.644,-114.583,W,N
396,Zambezi ,-13.533,23.107,E,S
397,Zenith ,37.35,-70.01,W,N
398,Zhongshan_Univ ,23.06,113.39,E,N
399,Zouerate-Fennec ,22.75,-12.483,W,N
0,Abisko ,68.35,18.817,E,N
1,Abu_Dhabi ,24.476,54.329,E,N
2,Agoufou ,15.345,-1.479,W,N
3,Aguas_Emendadas ,-15.582,-47.656,W,S
4,Aire_Adour ,43.7,0.25,E,N
5,Albergue_UGR ,37.096,-3.387,W,N
6,Al_Dhafra ,24.254,54.55,E,N
7,Alkali_Lake ,37.859,-117.382,W,N
8,Alta_Floresta ,-9.871,-56.104,W,S
9,Ames ,42.021,-93.775,W,N
10,Amsterdam_Island ,-37.8,77.572,E,S
11,Angiola ,35.947,-119.538,W,N
12,Antikythera_NOA ,35.861,23.31,E,N
13,Appledore_Island ,42.987,-70.615,W,N
14,Arcachon ,44.664,-1.163,W,N
15,Ariquiums ,-9.917,-63.033,W,S
16,ARM_Barnstable_MA ,41.67,-70.29,W,N
17,ARM_Gan_Island ,-0.691,73.15,E,S
18,ARM_HyytialaFinland ,61.844,24.288,E,N
19,ARM_Manacapuru ,-3.213,-60.598,W,S
20,ARM_Oliktok_AK ,70.499,-149.88,W,N
21,Ascension_Island ,-7.976,-14.415,W,S
22,Asmara ,15.343,38.922,E,N
23,Aubiere_LAMP ,45.761,3.111,E,N
24,Azores ,38.53,-28.63,W,N
25,BackGarden_GZ ,23.296,113.021,E,N
26,Baengnyeong ,37.966,124.63,E,N
27,Balbina ,-1.917,-59.487,W,S
28,Bandung ,-6.888,107.61,E,S
29,Banizoumbou ,13.547,2.665,E,N
30,Barbados ,13.149,-59.624,W,N
31,Bareilly ,28.39,79.437,E,N
32,Barnaul ,53.342,83.772,E,N
33,Bayfordbury ,51.776,-0.096,W,N
34,Beijing_PKU ,39.992,116.31,E,N
35,Belterra ,-2.648,-54.952,W,S
36,Berlin_FUB ,52.458,13.31,E,N
37,Bhola ,22.227,90.756,E,N
38,Bidur ,27.895,85.14,E,N
39,Billerica ,42.528,-71.269,W,N
40,Black_Forest_AMF ,48.54,8.397,E,N
41,BMKG_GAW_PALU ,-1.65,120.183,E,S
42,Bolzano ,46.457,11.33,E,N
43,Bondoukoui ,11.85,-3.75,W,N
44,Bordj_Badji_Mokhtar ,21.38,0.92,E,N
45,Boulder ,39.991,-105.261,W,N
46,Braccagni ,42.828,11.08,E,N
47,Brasilia_SONDA ,-15.601,-47.713,W,S
48,Brisbane-Uni_of_QLD ,-27.497,153.014,E,S
49,Brussels ,50.783,4.35,E,N
50,Bucharest_Inoe ,44.348,26.028,E,N
51,Bujumbura ,-3.38,29.384,E,S
52,Burjassot ,39.507,-0.42,W,N
53,Cabauw ,51.971,4.927,E,N
54,Caceres ,39.479,-6.343,W,N
55,Caillouel_COBIACC ,49.62,3.127,E,N
56,Cairo_University ,30.026,31.207,E,N
57,Calhau ,16.864,-24.867,W,N
58,Camborne_MO ,50.218,-5.327,W,N
59,CAMPO_VERDE ,-15.562,-55.175,W,S
60,CANDLE_LAKE ,53.733,-105.267,W,N
61,Cape_Romain ,32.941,-79.657,W,N
62,Carbon_Merced ,37.363,-120.575,W,N
63,Carpentras ,44.083,5.058,E,N
64,Cart_Site ,36.607,-97.486,W,N
65,CASLEO ,-31.799,-69.296,W,S
66,CBBT ,37.037,-76.077,W,N
67,CEILAP-Bariloche ,-41.147,-71.163,W,S
68,CEILAP-RG ,-51.601,-69.319,W,S
69,Cerro_Poyos ,37.109,-3.487,W,N
70,Chapada ,-15.361,-55.83,W,S
71,Chen-Kung_Univ ,22.993,120.205,E,N
72,Chiang_Mai ,18.813,98.987,E,N
73,Chiba_University ,35.625,140.104,E,N
74,Chinhae ,35.156,128.652,E,N
75,City_GZ ,23.081,113.158,E,N
76,Cliff_Creek_1 ,45.109,-114.843,W,N
77,Cliff_Creek_4 ,45.123,-114.839,W,N
78,CLUJ_UBB ,46.768,23.551,E,N
79,Coleambally ,-34.81,146.064,E,S
80,Corcoran ,36.103,-119.566,W,N
81,Coruna ,43.363,-8.421,W,N
82,Creteil ,48.788,2.443,E,N
83,Crucero ,-22.274,-69.566,W,S
84,Cuiaba ,-15.555,-56.07,W,S
85,Dahkla ,23.717,-15.95,W,N
86,Dalanzadgad ,43.577,104.419,E,N
87,Davos ,46.813,9.844,E,N
88,Dead_Sea ,31.1,35.45,E,N
89,Dhadnah ,25.513,56.325,E,N
90,Dibrugarh_Univ ,27.451,94.897,E,N
91,Djougou ,9.76,1.599,E,N
92,Doi_Inthanon ,18.59,98.486,E,N
93,Dongsha_Island ,20.699,116.729,E,N
94,DRAGON_Henties_2 ,-22.116,14.34,E,S
95,DRAGON_Henties_5 ,-22.092,14.4,E,S
96,Dunedin ,-45.864,170.514,E,S
97,Dunkerque ,51.035,2.368,E,N
98,EastMalling_MO ,51.29,0.44,E,N
99,Edinburgh ,55.924,-3.179,W,N
100,Egbert ,44.232,-79.781,W,N
101,EIM-Sindos ,40.69,22.8,E,N
102,El_Arenosillo ,37.105,-6.733,W,N
103,El_Nido_Airport ,11.205,119.413,E,N
104,EOPACE1 ,36.182,-75.751,W,N
105,Epanomi ,40.375,22.978,E,N
106,ETNA ,37.614,15.019,E,N
107,EVK2-CNR ,27.958,86.815,E,N
108,Fang ,19.913,99.206,E,N
109,FLIN_FLON ,54.67,-101.69,W,N
110,FORTH_CRETE ,35.333,25.282,E,N
111,Fowlers_Gap ,-31.086,141.701,E,S
112,Fresno ,36.782,-119.773,W,N
113,Frioul ,43.266,5.293,E,N
114,Fukuoka ,33.524,130.475,E,N
115,Gainesville_Airport ,29.696,-82.261,W,N
116,Gandhi_College ,25.871,84.128,E,N
117,GISS ,40.798,-73.96,W,N
118,Gloria ,44.6,29.36,E,N
119,Goldstone ,35.233,-116.792,W,N
120,Gosan_SNU ,33.292,126.162,E,N
121,Gozo ,36.034,14.265,E,N
122,Grand_Forks ,47.912,-97.325,W,N
123,Grizzly_Bay ,38.108,-122.056,W,N
124,Gual_Pahari ,28.426,77.15,E,N
125,Gwangju_GIST ,35.228,126.843,E,N
126,Halifax ,44.638,-63.594,W,N
127,Hamim ,22.967,54.3,E,N
128,Hangzhou_City ,30.29,120.157,E,N
129,Hart_Miller_Island ,39.242,-76.363,W,N
130,HBOI ,27.534,-80.357,W,N
131,Helsinki ,60.204,24.961,E,N
132,Henties_Bay ,-22.095,14.26,E,S
133,Hetauda ,27.428,85.031,E,N
134,HohenpeissenbergDWD ,47.802,11.012,E,N
135,Hong_Kong_Hok_Tsui ,22.21,114.258,E,N
136,Honolulu ,21.317,-157.886,W,N
137,Hua_Hin ,12.634,99.951,E,N
138,Huang_Shan ,30.13,118.15,E,N
139,IAOCA-KRSU ,42.464,78.529,E,N
140,Ibirapuera ,-23.589,-46.651,W,S
141,IER_Cinzana ,13.278,-5.934,W,N
142,Ilorin ,8.484,4.675,E,N
143,IMPROVE-MammothCave ,37.132,-86.148,W,N
144,Inner_Mongolia ,42.683,115.954,E,N
145,Irkutsk ,51.8,103.087,E,N
146,Issyk-Kul ,42.623,76.983,E,N
147,Izana ,28.309,-16.499,W,N
148,Jaipur ,26.906,75.806,E,N
149,James_Res_Center ,35.873,-76.659,W,N
150,Jaru_Reserve ,-10.083,-61.933,W,S
151,Ji_Parana ,-10.86,-61.8,W,S
152,Joberg ,-26.186,28.029,E,S
153,Jug_Bay ,38.767,-76.778,W,N
154,Kaiping ,22.315,112.539,E,N
155,Kangerlussuaq ,66.996,-50.621,W,N
156,Kaohsiung ,22.676,120.292,E,N
157,Karachi ,24.946,67.136,E,N
158,Kasama ,-10.217,31.136,E,S
159,Kathmandu_Univ ,27.601,85.538,E,N
160,Kejimkujik ,44.383,-65.283,W,N
161,Kelowna_UAS ,49.941,-119.4,W,N
162,Key_Biscayne ,25.732,-80.163,W,N
163,KIOST_Ansan ,37.286,126.832,E,N
164,KITcube_Masada ,31.323,35.372,E,N
165,Kluane_Lake ,61.027,-138.41,W,N
166,Kolfield ,39.802,-74.476,W,N
167,KONZA_EDC ,39.102,-96.61,W,N
168,KORUS_Daegwallyeong ,37.687,128.759,E,N
169,KORUS_Mokpo_NU ,34.913,126.437,E,N
170,KORUS_Songchon ,37.338,127.489,E,N
171,Kosetice_Inoe ,49.558,15.115,E,N
172,Kuopio ,62.892,27.634,E,N
173,Kuwait_Airport ,29.242,47.972,E,N
174,Kwajalein_Atoll ,8.847,167.743,E,N
175,Kyiv-AO ,50.452,30.498,E,N
176,Laegeren ,47.478,8.364,E,N
177,Lake_Argyle ,-16.108,128.749,E,S
178,Lake_Lefroy ,-31.255,121.705,E,S
179,Lamezia_Terme ,38.876,16.232,E,N
180,Lanai ,20.735,-156.922,W,N
181,Langtang_BC ,28.214,85.61,E,N
182,Lan_Yu_Island ,22.037,121.558,E,N
183,La_Paz ,-16.539,-68.066,W,S
184,Las_Galletas ,28.015,-16.654,W,N
185,Learmonth ,-22.241,114.097,E,S
186,Leicester ,52.619,-1.122,W,N
187,Lerwick_MO ,60.139,-1.185,W,N
188,Lille ,50.612,3.142,E,N
189,Litang ,29.976,100.262,E,N
190,Loch_Leven ,56.188,-3.352,W,N
191,Longyearbyen ,78.223,15.649,E,N
192,Los_Fieros ,-14.55,-60.617,W,S
193,Los_Leones_Auger ,-35.496,-69.45,W,S
194,Lubango ,-14.958,13.445,E,S
195,Lulin ,23.469,120.874,E,N
196,Lunar_Lake ,38.39,-115.988,W,N
197,Mace_Head ,53.326,-9.899,W,N
198,Maeson ,19.83,99.171,E,N
199,Mainz ,49.999,8.3,E,N
200,Malaga ,36.715,-4.478,W,N
201,Mammoth_Lake ,37.617,-119.033,W,N
202,Mandalay_MTU ,21.973,96.186,E,N
203,Marambio ,-64.24,-56.625,W,S
204,Marina ,36.806,-121.788,W,N
205,Masdar_Institute ,24.442,54.617,E,N
206,MAXAR_FUTON ,40.036,-104.885,W,N
207,McCall_Dragon_1 ,44.764,-116.196,W,N
208,McCall_Dragon_5 ,45.267,-115.683,W,N
209,McCall_Dragon_8 ,45.269,-115.845,W,N
210,McMurdo ,-77.625,162.883,E,S
211,Medellin ,6.261,-75.578,W,N
212,Merida_MEDA ,20.984,-89.645,W,N
213,Mesa_Lakes ,39.052,-108.098,W,N
214,Mexico_City ,19.334,-99.182,W,N
215,Miami ,25.723,-80.28,W,N
216,Milyering ,-22.029,113.923,E,S
217,Minsk ,53.92,27.601,E,N
218,Missoula ,46.917,-114.083,W,N
219,Missoula_Pt_Six ,47.041,-113.986,W,N
220,Mobile_S_011509_ND ,28.348,76.94,E,N
221,Moldova ,47.001,28.816,E,N
222,Mongu_Inn ,-15.267,23.134,E,S
223,Montevideo_FING ,-34.918,-56.167,W,S
224,Moscow_MSU_MO ,55.707,37.522,E,N
225,Mount_Gibbes ,35.735,-82.286,W,N
226,Mt_Royal_ES_MS ,39.309,-76.625,W,N
227,Mukdahan ,16.607,104.676,E,N
228,Murcia ,38.001,-1.171,W,N
229,Muztagh_Ata ,38.408,75.039,E,N
230,Myanmar ,16.865,96.154,E,N
231,Nairobi ,-1.339,36.865,E,S
232,Napoli_CeSMA ,40.837,14.307,E,N
233,NASA_Ames ,37.42,-122.057,W,N
234,Natal ,-5.841,-35.2,W,S
235,NCU_Taiwan ,24.968,121.188,E,N
236,NEON_BARR ,71.282,-156.619,W,N
237,NEON-Boulder ,40.008,-105.268,W,N
238,NEON-CPER ,40.812,-104.744,W,N
239,NEON-Disney ,28.125,-81.436,W,N
240,NEON_GUAN ,17.97,-66.869,W,N
241,NEON_HEAL ,63.876,-149.213,W,N
242,NEON_Ivanpah ,35.551,-115.382,W,N
243,NEON_MLBS ,37.378,-80.525,W,N
244,NEON_NOGP ,46.77,-100.915,W,N
245,NEON_ORNL ,35.964,-84.283,W,N
246,NEON-RailroadValley ,38.497,-115.691,W,N
247,NEON_SERC ,38.89,-76.56,W,N
248,NEON-SoaprootSaddle ,37.037,-119.281,W,N
249,NEON_TALL ,32.95,-87.393,W,N
250,NEON_UKFS ,39.04,-95.192,W,N
251,NEON_WREF ,45.82,-121.952,W,N
252,New_Delhi ,28.63,77.175,E,N
253,NEW_YORK ,40.77,-74.0,W,N
254,Niabrara ,42.765,-100.02,W,N
255,Nicelli_Airport ,45.426,12.382,E,N
256,Ningbo ,29.86,121.547,E,N
257,North_Pole ,88.0,24.254,E,N
258,Noumea ,-22.302,166.444,E,S
259,NSPO_Taiwan ,24.784,121.001,E,N
260,Ny_Alesund ,78.929,11.861,E,N
261,OBS-SSA ,53.985,-105.12,W,N
262,OkefenokeeNWR ,30.741,-82.129,W,N
263,OK_St_Univ ,35.046,-97.917,W,N
264,OPAL ,79.99,-85.939,W,N
265,Orlean_Bricy ,47.987,1.761,E,N
266,Osaka ,34.651,135.591,E,N
267,Ouarzazate ,30.928,-6.913,W,N
268,Owens_Lake ,36.488,-117.871,W,N
269,Paardefontein ,-25.496,28.375,E,S
270,Pagosa_Springs ,37.27,-107.05,W,N
271,Palencia ,41.989,-4.516,W,N
272,Panama_BCI ,9.167,-79.85,W,N
273,Paposo ,-25.007,-70.45,W,S
274,Paris ,48.847,2.356,E,N
275,Payerne ,46.812,6.942,E,N
276,Perth ,-32.008,115.894,E,S
277,Philadelphia ,40.036,-75.005,W,N
278,Pietersburg ,-23.883,29.45,E,S
279,Pinehurst_Idaho ,47.537,-116.237,W,N
280,PKU_PEK ,39.593,116.184,E,N
281,POLWET_Rzecin ,52.762,16.31,E,N
282,Porquerolles ,43.001,6.161,E,N
283,Porto_Velho ,-8.77,-63.95,W,S
284,Potchefstroom ,-26.69,27.091,E,S
285,Pretoria_CSIR-DPSS ,-25.757,28.28,E,S
286,Prospect_Hill ,32.299,-64.765,W,N
287,Puli ,23.969,120.967,E,N
288,Punta_Arenas_UMAG ,-53.135,-70.885,W,S
289,Qena_SVU ,26.2,32.747,E,N
290,Quarzazate ,30.939,-6.909,W,N
291,Ragged_Point ,13.165,-59.432,W,N
292,Railroad_Valley2 ,38.497,-115.691,W,N
293,Realtor ,43.486,5.384,E,N
294,Red_River_Delta ,20.729,106.128,E,N
295,REUNION_ST_DENIS ,-20.901,55.485,E,S
296,Rhyl_MO ,53.259,-3.509,W,N
297,Rio_Branco ,-9.957,-67.869,W,S
298,Riverside_Park ,38.717,-77.067,W,N
299,Rockville ,39.056,-77.13,W,N
300,Rome_La_Sapienza ,41.902,12.516,E,N
301,Rossfeld ,48.335,7.625,E,N
302,Sable_Island ,43.933,-60.01,W,N
303,SAGRES ,37.048,-8.874,W,N
304,Sakeji_School ,-11.233,24.312,E,S
305,Sandia_NM_PSEL ,35.055,-106.54,W,N
306,San_Nicolas ,33.257,-119.487,W,N
307,SANTA_CRUZ ,-17.802,-63.178,W,S
308,Santa_Monica_Colg ,34.017,-118.471,W,N
309,Santiago ,-33.49,-70.717,W,S
310,Santo_Pekoa ,-15.508,167.219,E,S
311,Sao_Tome ,0.375,6.711,E,N
312,SDU1 ,-20.073,-67.601,W,S
313,SDU4 ,-20.123,-67.679,W,S
314,SDU2018 ,-20.032,-67.87,W,S
315,SEARCH-OLF ,30.55,-87.375,W,N
316,SEDE_BOKER ,30.855,34.782,E,N
317,Seoul_SNU ,37.458,126.951,E,N
318,Sevastopol ,44.616,33.517,E,N
319,Shagaya_Park ,29.209,47.061,E,N
320,Shelton ,40.75,-98.76,W,N
321,Shirahama ,33.693,135.357,E,N
322,Sigma_Space_Corp ,38.953,-76.836,W,N
323,Singapore ,1.298,103.78,E,N
324,Sioux_Falls_X ,43.736,-96.626,W,N
325,Skukuza ,-24.992,31.587,E,S
326,SMART_POL ,24.249,55.612,E,N
327,Smith_Island_CBF ,37.969,-76.024,W,N
328,Solar_Village ,24.907,46.397,E,N
329,SONET_Hefei ,31.905,117.162,E,N
330,SONET_Xingtai ,37.182,114.36,E,N
331,Son_La ,21.332,103.905,E,N
332,Southeast_MS ,39.285,-76.531,W,N
333,SP_Bayboro ,27.762,-82.633,W,N
334,Spoon_Butte ,42.596,-104.443,W,N
335,SS_OJP_BOREAS ,53.916,-104.69,W,N
336,Stennis ,30.368,-89.617,W,N
337,St_John_Island ,18.32,-64.73,W,N
338,Strzyzow ,49.879,21.861,E,N
339,Suertes ,40.372,-3.606,W,N
340,Surinam ,5.8,-55.2,W,N
341,Table_Mountain ,40.125,-105.237,W,N
342,Tahiti ,-17.577,-149.606,W,S
343,Taihu ,31.421,120.215,E,N
344,Tallahassee ,30.446,-84.299,W,N
345,Tamanrasset_INM ,22.79,5.53,E,N
346,Tampico_MAX_MEX ,22.278,-97.864,W,N
347,Taylor_Ranch_TWRS ,45.103,-114.85,W,N
348,Teles_Peres ,-9.668,-56.02,W,S
349,Tenosique ,17.488,-91.426,W,N
350,The_Mall ,38.89,-77.031,W,N
351,Thompson ,55.8,-97.85,W,N
352,Thule ,76.516,-68.769,W,N
353,Tinga_Tingana ,-28.976,139.991,E,S
354,T0_MAX_MEX ,19.49,-99.148,W,N
355,Tombstone ,31.742,-110.05,W,N
356,Tomsk_temp ,56.477,85.047,E,N
357,Toronto ,43.79,-79.47,W,N
358,TOULOUSE ,43.562,1.476,E,N
359,Trelew ,-43.25,-65.309,W,S
360,Trinidad_Head ,41.054,-124.151,W,N
361,Tsumkwe ,-19.617,20.442,E,S
362,Tucuman ,-26.787,-65.207,W,S
363,Tumbarumba ,-35.708,147.95,E,S
364,Tuz_Golu ,38.749,33.336,E,N
365,TWRS ,45.104,-114.85,W,N
366,Uberlandia ,-18.9,-48.283,W,S
367,UCSB ,34.415,-119.845,W,N
368,UH_Coastal_Center ,29.388,-95.043,W,N
369,UMBC ,39.255,-76.709,W,N
370,UNC-Bogota ,4.637,-74.081,W,N
371,Univ_of_Houston ,29.718,-95.342,W,N
372,U_of_Wisconsin_SSEC ,43.072,-89.411,W,N
373,Upper_Buffalo ,35.826,-93.203,W,N
374,USC_SEAPRISM_2 ,33.564,-118.118,W,N
375,USDA-Howard ,39.054,-76.877,W,N
376,Ussuriysk ,43.7,132.163,E,N
377,Valladolid_Sci ,41.656,-4.715,W,N
378,Veracruz_MAX_MEX ,19.144,-96.187,W,N
379,Vienna_UNIVIE ,48.222,16.356,E,N
380,Vinon ,43.709,5.759,E,N
381,Walker_Branch ,35.958,-84.287,W,N
382,Walvis_Bay_airport ,-22.98,14.64,E,S
383,Waters_Art_Gallery ,39.3,-76.617,W,N
384,Weizmann_Institute ,31.907,34.811,E,N
385,White_Salmon ,45.767,-121.513,W,N
386,Windhoek-NUST ,-22.566,17.073,E,S
387,Windsor_Corp_Park ,39.327,-76.754,W,N
388,Wits_University ,-26.192,28.029,E,S
389,Xanthi ,41.147,24.919,E,N
390,Xitun ,24.162,120.617,E,N
391,Yale_Coastal ,41.258,-72.731,W,N
392,Yekaterinburg ,57.038,59.545,E,N
393,Yeomsan-Myeon ,35.237,126.303,E,N
394,Yufa_PEK ,39.309,116.184,E,N
395,Yushan ,23.487,120.959,E,N
396,Zaragoza ,41.633,-0.882,W,N
397,Zhangye ,39.079,100.276,E,N
398,Zinder_Airport ,13.777,8.99,E,N
399,Zvenigorod ,55.695,36.775,E,N
0,Abracos_Hill ,-10.76,-62.358,W,S
1,Adelaide_Site_7 ,-34.725,138.656,E,S
2,Agri_School ,-10.081,-56.18,W,S
3,Ahi_De_Cara ,37.12,-3.43,W,N
4,Al_Ain ,24.242,55.705,E,N
5,Alboran ,35.94,-3.353,W,N
6,Alianca ,-14.733,-47.533,W,S
7,Al_Khaznah ,24.159,55.101,E,N
8,Amazon_ATTO_Tower ,-2.144,-59.0,W,S
9,Amiaz ,31.067,35.342,E,N
10,Andenes ,69.278,16.009,E,N
11,Anmyon ,36.539,126.33,E,N
12,AOE_Baotou ,40.852,109.629,E,N
13,Apra_Harbor ,13.42,144.663,E,N
14,ARIAKE_TOWER ,33.104,130.272,E,N
15,Arizona ,32.442,-110.788,W,N
16,ARM_Cordoba ,-32.126,-64.728,W,S
17,ARM_Graciosa ,39.091,-28.029,W,N
18,Armilla ,37.134,-3.632,W,N
19,ARM_McMurdo ,-77.849,166.73,E,S
20,ARM_SGP ,36.605,-97.486,W,N
21,Asia1 ,43.783,87.65,E,N
22,ASPET ,43.025,0.795,E,N
23,Autilla ,41.997,-4.603,W,N
24,Bac_Giang ,21.291,106.225,E,N
25,Bac_Lieu ,9.28,105.73,E,N
26,Bahrain ,26.208,50.609,E,N
27,Bambey-ISRA ,14.709,-16.477,W,N
28,Baneasa ,44.511,26.078,E,N
29,Banqiao ,24.998,121.442,E,N
30,Barbados_SALTRACE ,13.149,-59.625,W,N
31,Bari_University ,41.108,16.884,E,N
32,Barrow ,71.312,-156.665,W,N
33,Beijing ,39.977,116.381,E,N
34,Beijing_RADI ,40.005,116.379,E,N
35,Ben_McDhui ,-30.711,27.617,E,S
36,Bermuda ,32.37,-64.696,W,N
37,Biarritz ,43.483,-1.55,W,N
38,Biggs ,39.45,-121.733,W,N
39,Birdsville ,-25.899,139.346,E,S
40,Blida ,36.508,2.881,E,N
41,BMKG_Jakarta ,-6.155,106.841,E,S
42,Bonanza ,-21.826,19.59,E,S
43,BONDVILLE ,40.053,-88.372,W,N
44,Bordman ,45.817,-119.667,W,N
45,Boyd_County_MS ,38.427,-82.7,W,N
46,Bragansa ,-0.834,-46.641,W,S
47,Bratts_Lake ,50.204,-104.713,W,N
48,Brno_Airport ,49.156,16.683,E,N
49,BSRN_BAO_Boulder ,40.045,-105.006,W,N
50,Buena_Vista ,35.22,-119.26,W,N
51,Bukit_Kototabang ,-0.202,100.318,E,S
52,Burtonsville ,39.094,-76.95,W,N
53,Cabo_da_Roca ,38.782,-9.498,W,N
54,Cachoeira_Paulista ,-22.689,-45.006,W,S
55,Cairo_EMA ,30.081,31.29,E,N
56,Caldwell_Parish_HS ,32.06,-92.096,W,N
57,CalTech ,34.137,-118.126,W,N
58,Campo_Grande ,-20.45,-54.617,W,S
59,Campus_USACH ,-33.45,-70.682,W,S
60,Cap_d_En_Font ,39.826,4.208,E,N
61,Cape_San_Juan ,18.384,-65.62,W,N
62,Carloforte ,39.14,8.31,E,N
63,CARTEL ,45.38,-71.931,W,N
64,Casablanca_Platform ,40.717,1.358,E,N
65,Cat_Spring ,29.829,-96.326,W,N
66,CCNY ,40.821,-73.949,W,N
67,CEILAP-Comodoro ,-45.792,-67.463,W,S
68,CEILAP-UTN ,-34.66,-58.469,W,S
69,Changchun ,44.0,125.396,E,N
70,Chapais ,49.822,-74.975,W,N
71,Chequamegon ,45.933,-90.25,W,N
72,Chiang_Mai_Met_Sta ,18.771,98.972,E,N
73,Chilbolton ,51.144,-1.437,W,N
74,Chulalongkorn ,13.736,100.53,E,N
75,Ciutadella_Menorca ,39.985,3.837,E,N
76,Cliff_Creek_2 ,45.115,-114.843,W,N
77,Cliff_Creek_5 ,45.13,-114.847,W,N
78,Coconut_Island ,21.433,-157.79,W,N
79,Columbia_SC ,34.023,-81.036,W,N
80,Cordoba-CETT ,-31.524,-64.464,W,S
81,COVE ,36.9,-75.71,W,N
82,Crozet_Island ,-46.435,51.85,E,S
83,CRYSTAL_FACE ,25.65,-80.422,W,N
84,CUIABA-MIRANDA ,-15.731,-56.071,W,S
85,Dakar ,14.394,-16.959,W,N
86,Dalma ,24.502,52.332,E,N
87,Dayton ,39.776,-84.11,W,N
88,DEWA_ResearchCentre ,24.767,55.369,E,N
89,Dhaka_University ,23.728,90.398,E,N
90,DigitalGlobe_Cal ,40.139,-105.137,W,N
91,DMN_Maine_Soroa ,13.217,12.023,E,N
92,Dolly_Sods ,39.11,-79.43,W,N
93,Douliu ,23.712,120.545,E,N
94,DRAGON_Henties_3 ,-22.184,14.378,E,S
95,DRAGON_Henties_6 ,-22.167,14.431,E,S
96,Dunhuang ,40.038,94.794,E,N
97,Durban_UKZN ,-29.817,30.944,E,S
98,Easton_Airport ,38.807,-76.073,W,N
99,Edmonton ,53.549,-113.636,W,N
100,Egbert_X ,44.232,-79.781,W,N
101,El_Alto-Altiplano ,-16.51,-68.199,W,S
102,El_Farafra ,27.058,27.99,E,N
103,El_Refugio ,-14.766,-62.035,W,S
104,EOPACE2 ,36.184,-75.745,W,N
105,EPA-Res_Triangle_Pk ,35.88,-78.87,W,N
106,ETNA_VENA ,37.791,15.139,E,N
107,Evora ,38.568,-7.912,W,N
108,Farmington_RSVP ,36.797,-108.48,W,N
109,Flor_De_Oro ,-13.553,-61.014,W,S
110,Fort_McKay ,57.184,-111.64,W,N
111,Frederick_Douglas ,39.315,-76.655,W,N
112,Fresno_2 ,36.785,-119.773,W,N
113,Fuguei_Cape ,25.297,121.538,E,N
114,FZJ-JOYCE ,50.908,6.413,E,N
115,Gaithersburg ,39.133,-77.208,W,N
116,Gangneung_WNU ,37.771,128.867,E,N
117,Glasgow_MO ,55.907,-4.531,W,N
118,GOA_INDIA ,15.453,73.806,E,N
119,GORDO_rest ,-15.401,-55.993,W,S
120,Gotland ,57.917,18.95,E,N
121,Graciosa ,39.091,-28.03,W,N
122,Granite_Island ,46.721,-87.412,W,N
123,GSFC ,38.992,-76.84,W,N
124,Guam ,13.431,144.801,E,N
125,Hada_El-Sham ,21.802,39.729,E,N
126,Hamburg ,53.568,9.973,E,N
127,Hampton_Roads ,36.783,-76.45,W,N
128,Hangzhou-ZFU ,30.257,119.727,E,N
129,Harvard_Forest ,42.532,-72.188,W,N
130,Hefei ,31.905,117.162,E,N
131,Helsinki_Lighthouse ,59.949,24.926,E,N
132,Hermosillo ,29.075,-110.96,W,N
133,HJAndrews ,44.239,-122.224,W,N
134,Hokkaido_University ,43.075,141.341,E,N
135,Hong_Kong_PolyU ,22.303,114.18,E,N
136,Hornsund ,77.001,15.54,E,N
137,Huambo ,-12.868,15.705,E,S
138,Huelva ,37.016,-6.569,W,N
139,IASBS ,36.705,48.507,E,N
140,ICIPE-Mbita ,-0.432,34.206,E,S
141,IHOP-Homestead ,36.558,-100.606,W,N
142,IMAA_Potenza ,40.601,15.724,E,N
143,IMS-METU-ERDEMLI ,36.565,34.255,E,N
144,Iqaluit ,63.748,-68.543,W,N
145,ISDGM_CNR ,45.437,12.332,E,N
146,Itajuba ,-22.413,-45.452,W,S
147,Jabal_Hafeet ,24.058,55.776,E,N
148,Jamari ,-9.199,-63.069,W,S
149,JamTown ,-9.191,-63.18,W,S
150,JARU_TOWN ,-10.443,-62.468,W,S
151,Ji_Parana_SE ,-10.934,-61.852,W,S
152,Jomsom ,28.778,83.714,E,N
153,JUNGFRAU ,46.547,7.985,E,N
154,Kaloma ,-14.86,24.828,E,S
155,Kanpur ,26.513,80.232,E,N
156,Kaoma ,-14.793,24.795,E,S
157,Karlsruhe ,49.093,8.428,E,N
158,Kashi ,39.504,75.93,E,N
159,Katibougou ,12.917,-7.532,W,N
160,Kellogg_LTER ,42.408,-85.372,W,N
161,Kemigawa_Offshore ,35.611,140.023,E,N
162,Key_Biscayne2 ,25.732,-80.163,W,N
163,Kirtland_AFB ,34.951,-106.507,W,N
164,KITcube_Save ,8.001,2.428,E,N
165,Kobe ,34.72,135.291,E,N
166,Kolimbari ,35.533,23.783,E,N
167,Korea_University ,37.585,127.025,E,N
168,KORUS_Iksan ,35.962,127.005,E,N
169,KORUS_NIER ,37.569,126.64,E,N
170,KORUS_Taehwa ,37.312,127.31,E,N
171,Krasnoyarsk ,55.983,92.767,E,N
172,Kupang ,-10.139,123.667,E,S
173,Kuwait_Inst_Sci_Res ,29.338,47.906,E,N
174,Kyanjin_Gompa ,28.211,85.566,E,N
175,Kyungil_University ,36.072,128.824,E,N
176,Lahore ,31.48,74.264,E,N
177,Lake_Erie ,41.826,-83.194,W,N
178,Lake_Okeechobee ,26.902,-80.789,W,N
179,Lampedusa ,35.517,12.632,E,N
180,LANAI ,20.826,-156.985,W,N
181,Lannion ,48.731,-3.462,W,N
182,Lanzhou_City ,36.048,103.853,E,N
183,LAQUILA_Coppito ,42.368,13.351,E,N
184,LA-TM ,30.324,119.44,E,N
185,Lecce_University ,40.335,18.111,E,N
186,Leipzig ,51.352,12.435,E,N
187,Lhasa ,29.645,91.033,E,N
188,Lingshan_Mountain ,40.054,115.496,E,N
189,LMOS_Zion_Site ,42.468,-87.81,W,N
190,Loftus_MO ,54.563,-0.862,W,N
191,Lopburi ,15.267,101.187,E,N
192,LOS_FIEROS_98 ,-14.556,-60.929,W,S
193,LSU ,30.407,-91.184,W,N
194,Lucinda ,-18.52,146.386,E,S
195,Lumbini ,27.49,83.28,E,N
196,LW-SCAN ,34.96,-97.979,W,N
197,Madison ,43.07,-89.41,W,N
198,Maggie_Valley ,35.52,-83.095,W,N
199,Majadas ,39.955,-5.776,W,N
200,Maldives_Gan ,-0.691,73.15,E,S
201,Manaus ,-2.599,-60.039,W,S
202,Manila_Observatory ,14.635,121.078,E,N
203,Marbella_San_Pedro ,36.486,-4.993,W,N
204,Marseille ,43.282,5.384,E,N
205,Mauna_Loa ,19.536,-155.577,W,N
206,McCall_AB_Polar ,44.87,-116.116,W,N
207,McCall_Dragon_3 ,45.038,-116.289,W,N
208,McCall_Dragon_6 ,45.406,-116.025,W,N
209,McCall_Dragon_9 ,45.272,-115.849,W,N
210,MCO-Hanimaadhoo ,6.776,73.183,E,N
211,Medenine-IRA ,33.5,10.643,E,N
212,Meridian_DEQ ,43.601,-116.348,W,N
213,Messina ,38.197,15.567,E,N
214,Mezaira ,23.105,53.755,E,N
215,Midway_Island ,28.21,-177.378,W,N
216,Mingo ,36.972,-90.143,W,N
217,Misamfu ,-10.171,31.224,E,S
218,Missoula_Health_Dpt ,46.876,-113.996,W,N
219,Missoula_Waterworks ,46.881,-113.987,W,N
220,Modena ,44.632,10.945,E,N
221,Monclova ,25.95,-101.47,W,N
222,Monterey ,36.593,-121.855,W,N
223,Mont_Joli ,48.64,-68.156,W,N
224,Moss_Landing ,36.793,-121.788,W,N
225,Mount_Wilson ,34.225,-118.056,W,N
226,Mt_Washington_ES ,39.366,-76.655,W,N
227,Munich_Maisach ,48.209,11.258,E,N
228,Muscat ,23.606,58.436,E,N
229,MVCO ,41.325,-70.567,W,N
230,Naalehu_Elementary ,19.061,-155.579,W,N
231,NAM_CO ,30.773,90.962,E,N
232,Nara ,34.688,135.828,E,N
233,NASA_KSC ,28.464,-80.663,W,N
234,Nauru ,-0.521,166.916,E,S
235,ND_Marbel_Univ ,6.496,124.843,E,N
236,NEON_Bartlett ,44.064,-71.287,W,N
237,NEON-CASTNET ,40.279,-105.543,W,N
238,NEON_CVALLA ,40.161,-105.167,W,N
239,NEON_GrandJunction ,39.127,-108.535,W,N
240,NEON_Harvard ,42.537,-72.173,W,N
241,NEON_HighParkFire ,40.624,-105.336,W,N
242,NEON_KONZ ,39.101,-96.563,W,N
243,NEON_MOAB ,38.248,-109.388,W,N
244,NEON_OAES ,35.411,-99.059,W,N
245,NEON_OSBS ,29.689,-81.993,W,N
246,NEON_RMNP ,40.276,-105.546,W,N
247,NEON17-SJER ,37.09,-119.722,W,N
248,NEON_SRER ,31.911,-110.835,W,N
249,NEON_TEAK ,37.006,-119.006,W,N
250,NEON_UNDE ,46.234,-89.537,W,N
251,NEON_YELL ,44.953,-110.539,W,N
252,New_Delhi_IMD ,28.588,77.222,E,N
253,NGHIA_DO ,21.048,105.8,E,N
254,Niamey ,13.481,2.172,E,N
255,Nicosia ,35.141,33.381,E,N
256,Nong_Khai ,17.877,102.717,E,N
257,North_Slope ,69.627,-148.667,W,N
258,Nouragues ,4.088,-52.68,W,N
259,NUIST ,32.206,118.717,E,N
260,Ny_Alesund_AWI ,78.923,11.923,E,N
261,OceolaNF ,30.205,-82.443,W,N
262,Okinawa ,26.357,127.768,E,N
263,Omkoi ,17.798,98.432,E,N
264,Ordway-Swisher ,29.698,-81.988,W,N
265,ORS_Hermosillo ,29.027,-111.146,W,N
266,Osaka-North ,34.774,135.51,E,N
267,Oujda ,34.653,-1.898,W,N
268,Oxford ,51.759,-1.256,W,N
269,Paddockwood ,53.508,-105.562,W,N
270,Palaiseau ,48.712,2.215,E,N
271,Palgrunden ,58.755,13.152,E,N
272,Pantanal ,-16.395,-56.622,W,S
273,Paracou ,5.267,-52.926,W,N
274,Park_Brasilia ,-15.743,-47.917,W,S
275,PEARL ,80.054,-86.417,W,N
276,Peterhof ,59.881,29.826,E,N
277,Pic_du_midi ,42.937,0.141,E,N
278,Pilar_Cordoba ,-31.667,-63.883,W,S
279,Pioneer_JC ,1.384,103.755,E,N
280,PNNL ,46.341,-119.279,W,N
281,Pontianak ,0.075,109.191,E,N
282,Portglenone_MO ,54.865,-6.457,W,N
283,Porto_Velho_UNIR ,-8.837,-63.94,W,S
284,Potosi_Mine ,-9.231,-62.863,W,S
285,PRINCE_ALBERT ,53.2,-105.7,W,N
286,PSDA_Chile ,-24.09,-69.929,W,S
287,Pullman ,46.75,-117.192,W,N
288,Pusan_NU ,35.235,129.082,E,N
289,Qiandaohu ,29.556,119.053,E,N
290,Quito_USFQ ,-0.196,-78.436,W,S
291,Railroad ,38.505,-115.692,W,N
292,Rame_Head ,50.317,-4.22,W,N
293,Red_Bluff ,40.15,-122.25,W,N
294,Repressa_Samuel ,-8.755,-63.459,W,S
295,Rexburg_Idaho ,43.82,-111.783,W,N
296,Richland ,46.34,-119.28,W,N
297,Rio_de_Janeiro_UFRJ ,-22.857,-43.234,W,S
298,Robert_Poole_MS ,39.33,-76.638,W,N
299,Rogers_Dry_Lake ,34.926,-117.885,W,N
300,Rome_Tor_Vergata ,41.84,12.647,E,N
301,Rottnest_Island ,-32.0,115.502,E,S
302,Saclay ,48.733,2.167,E,N
303,Saih_Salam ,24.829,55.313,E,N
304,Salon_de_Provence ,43.606,5.12,E,N
305,Sandy_Hook ,40.448,-73.993,W,N
306,San_Nicolas_Vandal ,33.262,-119.537,W,N
307,Santa_Cruz_Tenerife ,28.473,-16.247,W,N
308,Santarem ,-2.429,-54.706,W,S
309,Santiago_Beauchef ,-33.457,-70.662,W,S
310,Sao_Martinho_SONDA ,-29.443,-53.823,W,S
311,Saturn_Island ,48.775,-123.128,W,N
312,SDU2 ,-19.983,-67.586,W,S
313,SDU5 ,-20.279,-66.983,W,S
314,SEARCH-Centreville2 ,32.903,-87.25,W,N
315,SEARCH-Yorkville ,33.928,-85.046,W,N
316,SEGC_Lope_Gabon ,-0.202,11.601,E,S
317,SERC ,38.889,-76.556,W,N
318,Sevilleta ,34.355,-106.885,W,N
319,Shanghi_Met ,31.221,121.549,E,N
320,Shijiazhuang-CHEY ,38.0,114.55,E,N
321,Shizafon ,30.113,35.009,E,N
322,Silpakorn_Univ ,13.819,100.041,E,N
323,Sinhgad ,18.367,73.75,E,N
324,Sir_Bu_Nuair ,25.218,54.231,E,N
325,SKUKUZA_AEROPORT ,-24.969,31.593,E,S
326,SMEX ,41.936,-93.664,W,N
327,Socheongcho ,37.423,124.738,E,N
328,Solwezi ,-12.171,26.363,E,S
329,SONET_Nanjing ,32.115,118.957,E,N
330,SONET_Zhoushan ,29.994,122.188,E,N
331,Sopot ,54.451,18.565,E,N
332,South_Greenbay ,44.596,-87.951,W,N
333,SP-EACH ,-23.482,-46.5,W,S
334,Sra_Kaeo ,13.689,102.504,E,N
335,SteamboatSpring ,40.405,-106.807,W,N
336,Sterling ,38.983,-77.467,W,N
337,St_Louis_University ,38.636,-90.232,W,N
338,St_Timothys_Lane ,39.273,-76.729,W,N
339,Suffield ,50.282,-111.131,W,N
340,Swakopmund ,-22.658,14.564,E,S
341,TABLE_MOUNTAIN_CA ,34.38,-117.68,W,N
342,Tahoe_City ,39.173,-120.135,W,N
343,Taipei_CWB ,25.015,121.538,E,N
344,TallTimbers ,30.664,-84.239,W,N
345,Tamanrasset_TMP ,22.79,5.53,E,N
346,Tarbes ,43.25,0.083,E,N
347,Technion_Haifa_IL ,32.776,35.025,E,N
348,Temuco-UFRO_CEFOP ,-38.746,-72.616,W,S
349,THALA ,35.55,8.683,E,N
350,Thessaloniki ,40.63,22.96,E,N
351,Thompson_Farm ,43.109,-70.948,W,N
352,Tiksi ,71.587,128.921,E,N
353,Tinian ,15.074,145.628,E,N
354,T1_MAX_MEX ,19.703,-98.982,W,N
355,Tomsk ,56.475,85.048,E,N
356,Tonopah_Airport ,38.05,-117.091,W,N
357,Toulon ,43.136,6.009,E,N
358,Toulouse_MF ,43.573,1.374,E,N
359,Tremiti ,42.118,15.49,E,N
360,Trivandrum ,8.533,76.867,E,N
361,TUBITAK_UZAY_Ankara ,39.891,32.778,E,N
362,Tudor_Hill ,32.264,-64.879,W,N
363,Tunis_Carthage ,36.839,10.2,E,N
364,Tuz_Golu_2 ,38.837,33.449,E,N
365,UACJ_UNAM_ORS ,31.743,-106.432,W,N
366,Ubon_Ratchathani ,15.246,104.871,E,N
367,UdeConcepcion-CEFOP ,-36.843,-73.025,W,S
368,Ukiah ,45.134,-118.919,W,N
369,UMBC_temp ,39.255,-76.709,W,N
370,UNC-Gaitan ,4.311,-72.352,W,N
371,Univ_of_Lethbridge ,49.682,-112.869,W,N
372,UPC-GEAB-Valledupar ,9.56,-73.329,W,N
373,UPRM_Lidar_Lab ,18.21,-67.14,W,N
374,USDA ,39.03,-76.88,W,N
375,USGS_Flagstaff_ROLO ,35.215,-111.634,W,N
376,Utsteinen ,-71.95,23.333,E,S
377,Vechernaya_Hill ,-67.66,46.158,E,S
378,Victoria_JC ,1.307,103.919,E,N
379,Vientiane ,17.992,102.57,E,N
380,VirginiaTech ,37.231,-80.425,W,N
381,Wallops ,37.933,-75.472,W,N
382,Warsaw_UW ,52.211,20.983,E,N
383,Watnall_MO ,53.006,-1.251,W,N
384,Welgegund ,-26.569,26.939,E,S
385,White_Sands ,32.919,-106.351,W,N
386,Windpoort ,-19.366,15.483,E,S
387,Windsor_M ,42.17,-82.87,W,N
388,Worthington_ES ,39.245,-76.793,W,N
389,XiangHe ,39.754,116.962,E,N
390,XuZhou-CUMT ,34.217,117.142,E,N
391,Yanqihu ,40.408,116.674,E,N
392,Yellowknife_Aurora ,62.451,-114.376,W,N
393,Yevpatoria ,45.215,33.142,E,N
394,Yulin ,38.283,109.717,E,N
395,Zakum_Field ,24.835,53.613,E,N
396,Zeebrugge-MOW1 ,51.362,3.12,E,N
397,Zhongshan ,22.516,113.383,E,N
398,Zinder_DMN ,13.775,8.984,E,N
399,,,,,
